[{"OBJECT_NAME":"STARLINK-1730","OBJECT_ID":"2020-070AH","EPOCH":"2025-12-14T05:33:46.175616","MEAN_MOTION":15.28939993,"ECCENTRICITY":0.00056648,"INCLINATION":53.0378,"RA_OF_ASC_NODE":164.1767,"ARG_OF_PERICENTER":127.3122,"MEAN_ANOMALY":232.8394,"EPHEMERIS_TYPE":0,"CLASSIFICATION_TYPE":"U","NORAD_CAT_ID":46563,"ELEMENT_SET_NO":999,"REV_AT_EPOCH":28713,"BSTAR":0.0021772806,"MEAN_MOTION_DOT":0.00062223,"MEAN_MOTION_DDOT":0},{"OBJECT_NAME":"STARLINK-1733","OBJECT_ID":"2020-070AJ","EPOCH":"2025-12-14T00:50:03.459264","MEAN_MOTION":15.46483426,"ECCENTRICITY":0.00111071,"INCLINATION":53.0525,"RA_OF_ASC_NODE":164.5496,"ARG_OF_PERICENTER":164.0443,"MEAN_ANOMALY":196.0915,"EPHEMERIS_TYPE":0,"CLASSIFICATION_TYPE":"U","NORAD_CAT_ID":46564,"ELEMENT_SET_NO":999,"REV_AT_EPOCH":28709,"BSTAR":0.0026572776,"MEAN_MOTION_DOT":0.00136152,"MEAN_MOTION_DDOT":0},{"OBJECT_NAME":"STARLINK-1735","OBJECT_ID":"2020-070AK","EPOCH":"2025-12-14T00:00:04.000320","MEAN_MOTION":15.41442125,"ECCENTRICITY":0.00071922,"INCLINATION":53.0501,"RA_OF_ASC_NODE":171.136,"ARG_OF_PERICENTER":164.2929,"MEAN_ANOMALY":81.6175,"EPHEMERIS_TYPE":0,"CLASSIFICATION_TYPE":"U","NORAD_CAT_ID":46565,"ELEMENT_SET_NO":999,"REV_AT_EPOCH":557,"BSTAR":0.002945187,"MEAN_MOTION_DOT":0.0012691,"MEAN_MOTION_DDOT":0},{"OBJECT_NAME":"STARLINK-1740","OBJECT_ID":"2020-070AL","EPOCH":"2025-12-14T08:00:03.000384","MEAN_MOTION":15.70101634,"ECCENTRICITY":0.00028662,"INCLINATION":53.0493,"RA_OF_ASC_NODE":145.3024,"ARG_OF_PERICENTER":77.1562,"MEAN_ANOMALY":1.4097,"EPHEMERIS_TYPE":0,"CLASSIFICATION_TYPE":"U","NORAD_CAT_ID":46566,"ELEMENT_SET_NO":999,"REV_AT_EPOCH":589,"BSTAR":0.002387787,"MEAN_MOTION_DOT":0.0030451,"MEAN_MOTION_DDOT":0},{"OBJECT_NAME":"STARLINK-1741","OBJECT_ID":"2020-070AM","EPOCH":"2025-12-14T07:27:53.955360","MEAN_MOTION":15.41744813,"ECCENTRICITY":0.00087684,"INCLINATION":53.0512,"RA_OF_ASC_NODE":169.141,"ARG_OF_PERICENTER":163.3781,"MEAN_ANOMALY":196.7512,"EPHEMERIS_TYPE":0,"CLASSIFICATION_TYPE":"U","NORAD_CAT_ID":46567,"ELEMENT_SET_NO":999,"REV_AT_EPOCH":28707,"BSTAR":0.0024949981,"MEAN_MOTION_DOT":0.00108321,"MEAN_MOTION_DDOT":0},{"OBJECT_NAME":"STARLINK-1531","OBJECT_ID":"2020-070AS","EPOCH":"2025-12-14T05:11:46.117536","MEAN_MOTION":15.34718354,"ECCENTRICITY":0.00083483,"INCLINATION":53.0563,"RA_OF_ASC_NODE":190.1651,"ARG_OF_PERICENTER":147.4758,"MEAN_ANOMALY":212.676,"EPHEMERIS_TYPE":0,"CLASSIFICATION_TYPE":"U","NORAD_CAT_ID":46572,"ELEMENT_SET_NO":999,"REV_AT_EPOCH":28676,"BSTAR":0.0071341761,"MEAN_MOTION_DOT":0.00251614,"MEAN_MOTION_DDOT":0},{"OBJECT_NAME":"STARLINK-1677","OBJECT_ID":"2020-070AW","EPOCH":"2025-12-14T05:54:33.043392","MEAN_MOTION":15.3921358,"ECCENTRICITY":0.00097424,"INCLINATION":53.0496,"RA_OF_ASC_NODE":174.356,"ARG_OF_PERICENTER":146.7217,"MEAN_ANOMALY":213.44,"EPHEMERIS_TYPE":0,"CLASSIFICATION_TYPE":"U","NORAD_CAT_ID":46576,"ELEMENT_SET_NO":999,"REV_AT_EPOCH":28699,"BSTAR":0.0025616805,"MEAN_MOTION_DOT":0.00102223,"MEAN_MOTION_DDOT":0},{"OBJECT_NAME":"STARLINK-1683","OBJECT_ID":"2020-070AY","EPOCH":"2025-12-14T08:00:03.000384","MEAN_MOTION":15.48995902,"ECCENTRICITY":0.00070714,"INCLINATION":53.0192,"RA_OF_ASC_NODE":129.9617,"ARG_OF_PERICENTER":139.1812,"MEAN_ANOMALY":202.2111,"EPHEMERIS_TYPE":0,"CLASSIFICATION_TYPE":"U","NORAD_CAT_ID":46578,"ELEMENT_SET_NO":999,"REV_AT_EPOCH":580,"BSTAR":0.0031062752,"MEAN_MOTION_DOT":0.0017443,"MEAN_MOTION_DDOT":0},{"OBJECT_NAME":"STARLINK-1705","OBJECT_ID":"2020-070AZ","EPOCH":"2025-12-14T08:00:03.000384","MEAN_MOTION":15.7404699,"ECCENTRICITY":0.00050925,"INCLINATION":53.0396,"RA_OF_ASC_NODE":140.8199,"ARG_OF_PERICENTER":141.5329,"MEAN_ANOMALY":115.1766,"EPHEMERIS_TYPE":0,"CLASSIFICATION_TYPE":"U","NORAD_CAT_ID":46579,"ELEMENT_SET_NO":999,"REV_AT_EPOCH":560,"BSTAR":0.0021101059,"MEAN_MOTION_DOT":0.00318567,"MEAN_MOTION_DDOT":0},{"OBJECT_NAME":"STARLINK-1712","OBJECT_ID":"2020-070BB","EPOCH":"2025-12-14T08:00:03.000384","MEAN_MOTION":15.53461926,"ECCENTRICITY":0.00016159,"INCLINATION":53.0465,"RA_OF_ASC_NODE":144.0301,"ARG_OF_PERICENTER":313.5249,"MEAN_ANOMALY":158.5728,"EPHEMERIS_TYPE":0,"CLASSIFICATION_TYPE":"U","NORAD_CAT_ID":46581,"ELEMENT_SET_NO":999,"REV_AT_EPOCH":587,"BSTAR":0.0030997913,"MEAN_MOTION_DOT":0.0020481,"MEAN_MOTION_DDOT":0},{"OBJECT_NAME":"STARLINK-1728","OBJECT_ID":"2020-070BC","EPOCH":"2025-12-14T05:55:01.558848","MEAN_MOTION":15.34558641,"ECCENTRICITY":0.00082536,"INCLINATION":53.0502,"RA_OF_ASC_NODE":171.3752,"ARG_OF_PERICENTER":156.4005,"MEAN_ANOMALY":203.7377,"EPHEMERIS_TYPE":0,"CLASSIFICATION_TYPE":"U","NORAD_CAT_ID":46582,"ELEMENT_SET_NO":999,"REV_AT_EPOCH":28703,"BSTAR":0.0023315659,"MEAN_MOTION_DOT":0.00079719,"MEAN_MOTION_DDOT":0},{"OBJECT_NAME":"STARLINK-1736","OBJECT_ID":"2020-070BF","EPOCH":"2025-12-14T08:00:03.000384","MEAN_MOTION":15.43887263,"ECCENTRICITY":0.00082865,"INCLINATION":53.05,"RA_OF_ASC_NODE":168.9421,"ARG_OF_PERICENTER":161.0755,"MEAN_ANOMALY":141.6524,"EPHEMERIS_TYPE":0,"CLASSIFICATION_TYPE":"U","NORAD_CAT_ID":46585,"ELEMENT_SET_NO":999,"REV_AT_EPOCH":584,"BSTAR":0.0032083063,"MEAN_MOTION_DOT":0.00150634,"MEAN_MOTION_DDOT":0},{"OBJECT_NAME":"STARLINK-1746","OBJECT_ID":"2020-070BJ","EPOCH":"2025-12-14T08:00:03.000384","MEAN_MOTION":15.42498947,"ECCENTRICITY":0.00094494,"INCLINATION":53.0503,"RA_OF_ASC_NODE":168.4376,"ARG_OF_PERICENTER":158.545,"MEAN_ANOMALY":209.5244,"EPHEMERIS_TYPE":0,"CLASSIFICATION_TYPE":"U","NORAD_CAT_ID":46588,"ELEMENT_SET_NO":999,"REV_AT_EPOCH":563,"BSTAR":0.0032481,"MEAN_MOTION_DOT":0.00145481,"MEAN_MOTION_DDOT":0},{"OBJECT_NAME":"STARLINK-1716","OBJECT_ID":"2020-073C","EPOCH":"2025-12-14T07:43:34.466016","MEAN_MOTION":15.44278886,"ECCENTRICITY":0.00150416,"INCLINATION":53.0515,"RA_OF_ASC_NODE":252.393,"ARG_OF_PERICENTER":93.7307,"MEAN_ANOMALY":266.5418,"EPHEMERIS_TYPE":0,"CLASSIFICATION_TYPE":"U","NORAD_CAT_ID":46672,"ELEMENT_SET_NO":999,"REV_AT_EPOCH":28444,"BSTAR":0.0020953317,"MEAN_MOTION_DOT":0.00099163,"MEAN_MOTION_DDOT":0},{"OBJECT_NAME":"STARLINK-1718","OBJECT_ID":"2020-073E","EPOCH":"2025-12-14T04:41:15.035424","MEAN_MOTION":15.06400459,"ECCENTRICITY":0.00014105,"INCLINATION":53.0527,"RA_OF_ASC_NODE":265.414,"ARG_OF_PERICENTER":77.2645,"MEAN_ANOMALY":282.8501,"EPHEMERIS_TYPE":0,"CLASSIFICATION_TYPE":"U","NORAD_CAT_ID":46674,"ELEMENT_SET_NO":999,"REV_AT_EPOCH":28424,"BSTAR":0.00060343024,"MEAN_MOTION_DOT":8.718e-5,"MEAN_MOTION_DDOT":0},{"OBJECT_NAME":"STARLINK-1775","OBJECT_ID":"2020-073M","EPOCH":"2025-12-14T04:58:51.896640","MEAN_MOTION":15.49119909,"ECCENTRICITY":0.00105296,"INCLINATION":53.0543,"RA_OF_ASC_NODE":268.1182,"ARG_OF_PERICENTER":97.1488,"MEAN_ANOMALY":263.0717,"EPHEMERIS_TYPE":0,"CLASSIFICATION_TYPE":"U","NORAD_CAT_ID":46681,"ELEMENT_SET_NO":999,"REV_AT_EPOCH":28420,"BSTAR":0.0019812331,"MEAN_MOTION_DOT":0.00110794,"MEAN_MOTION_DDOT":0}]
