STARLINK-1730           
1 46563U 20070AH  25348.23178444  .00062223  00000+0  21773-2 0  9994
2 46563  53.0378 164.1767 0005664 127.3122 232.8394 15.28939993287133
STARLINK-1733           
1 46564U 20070AJ  25348.03476226  .00136152  00000+0  26573-2 0  9998
2 46564  53.0525 164.5496 0011107 164.0443 196.0915 15.46483426287094
STARLINK-1735           
1 46565U 20070AK  25348.00004630  .00126910  00000+0  29452-2 0  9992
2 46565  53.0501 171.1360 0007192 164.2929  81.6175 15.41442125  5577
STARLINK-1740           
1 46566U 20070AL  25348.33336806  .00304510  00000+0  23878-2 0  9992
2 46566  53.0493 145.3024 0002866  77.1562   1.4097 15.70101634  5893
STARLINK-1741           
1 46567U 20070AM  25348.31104115  .00108321  00000+0  24950-2 0  9991
2 46567  53.0512 169.1410 0008768 163.3781 196.7512 15.41744813287079
STARLINK-1531           
1 46572U 20070AS  25348.21650599  .00251614  00000+0  71342-2 0  9999
2 46572  53.0563 190.1651 0008348 147.4758 212.6760 15.34718354286764
STARLINK-1677           
1 46576U 20070AW  25348.24621578  .00102223  00000+0  25617-2 0  9996
2 46576  53.0496 174.3560 0009742 146.7217 213.4400 15.39213580286998
STARLINK-1683           
1 46578U 20070AY  25348.33336806  .00174430  00000+0  31063-2 0  9996
2 46578  53.0192 129.9617 0007071 139.1812 202.2111 15.48995902  5801
STARLINK-1705           
1 46579U 20070AZ  25348.33336806  .00318567  00000+0  21101-2 0  9990
2 46579  53.0396 140.8199 0005092 141.5329 115.1766 15.74046990  5605
STARLINK-1712           
1 46581U 20070BB  25348.33336806  .00204810  00000+0  30998-2 0  9992
2 46581  53.0465 144.0301 0001615 313.5249 158.5728 15.53461926  5870
STARLINK-1728           
1 46582U 20070BC  25348.24654582  .00079719  00000+0  23316-2 0  9991
2 46582  53.0502 171.3752 0008253 156.4005 203.7377 15.34558641287038
STARLINK-1736           
1 46585U 20070BF  25348.33336806  .00150634  00000+0  32083-2 0  9997
2 46585  53.0500 168.9421 0008286 161.0755 141.6524 15.43887263  5840
STARLINK-1746           
1 46588U 20070BJ  25348.33336806  .00145481  00000+0  32481-2 0  9996
2 46588  53.0503 168.4376 0009449 158.5450 209.5244 15.42498947  5631
STARLINK-1716           
1 46672U 20073C   25348.32192669  .00099163  00000+0  20953-2 0  9995
2 46672  53.0515 252.3930 0015041  93.7307 266.5418 15.44278886284447
STARLINK-1718           
1 46674U 20073E   25348.19531291  .00008718  00000+0  60343-3 0  9994
2 46674  53.0527 265.4140 0001410  77.2645 282.8501 15.06400459284240
STARLINK-1775           
1 46681U 20073M   25348.20754510  .00110794  00000+0  19812-2 0  9997
2 46681  53.0543 268.1182 0010529  97.1488 263.0717 15.49119909284209
